[
    {
        "Altitude(m)": 605470.7458165181,
        "Argument of Periapsis(deg)": 0.0,
        "Eccentricity": 0.0,
        "Inclination(deg)": 60.0,
        "Latitude(deg)": 27.988062692314035,
        "Longitude(deg)": -32.73710217534601,
        "Mean Anomaly(deg)": -212.7273,
        "RAAN(deg)": 265.0,
        "Satellite Name": "Test1 1175",
        "Satellite Number": 1175,
        "Semi-Major Axis(m)": 6980739.136638005,
        "Time(s)": 0
    },
    {
        "Altitude(m)": 605395.7844197624,
        "Argument of Periapsis(deg)": 0.00010418945913296404,
        "Eccentricity": 0.0,
        "Inclination(deg)": 60.0,
        "Latitude(deg)": 27.473753955073978,
        "Longitude(deg)": -32.38391379039799,
        "Mean Anomaly(deg)": -212.1071938545382,
        "RAAN(deg)": 264.99957995086027,
        "Satellite Name": "Test1 1175",
        "Satellite Number": 1175,
        "Semi-Major Axis(m)": 6980739.136638005,
        "Time(s)": 10
    }
]